{
  "type": "FeatureCollection",
  "features": [
    {
      "type": "Feature",
      "properties": {
        "norad_id": 33376,
        "name": "GALAXY 19 (G-19)",
        "group": "intelsat",
        "lat": 0.02471112958059097,
        "lon": 77.52931825840912,
        "alt_km": 35796.42914576051,
        "timestamp": "2025-12-20T05:41:49.685854+00:00",
        "meta_object_name": "GALAXY 19 (G-19)",
        "meta_object_id": "2008-045A",
        "meta_epoch": "2025-12-19T11:21:27.498816",
        "meta_mean_motion": 1.00271614,
        "meta_eccentricity": 0.0002508,
        "meta_inclination": 0.0157,
        "meta_ra_of_asc_node": 292.5517,
        "meta_arg_of_pericenter": 339.8224,
        "meta_mean_anomaly": 249.3126,
        "meta_ephemeris_type": 0,
        "meta_classification_type": "U",
        "meta_norad_cat_id": 33376,
        "meta_element_set_no": 999,
        "meta_rev_at_epoch": 6310,
        "meta_bstar": 0,
        "meta_mean_motion_dot": -1.15e-06,
        "meta_mean_motion_ddot": 0,
        "tle_line1": "1 33376U 08045A   25353.47323494 -.00000115  00000+0  00000+0 0  9999",
        "tle_line2": "2 33376   0.0157 292.5517 0002508 339.8224 249.3126  1.00271614 63103"
      },
      "geometry": {
        "type": "Point",
        "coordinates": [
          77.52931825840912,
          0.02471112958059097
        ]
      }
    },
    {
      "type": "Feature",
      "properties": {
        "norad_id": 35493,
        "name": "FM-5",
        "group": "intelsat",
        "lat": 0.02586009980319221,
        "lon": 88.36360109745047,
        "alt_km": 35784.73258083041,
        "timestamp": "2025-12-20T05:41:49.685866+00:00",
        "meta_object_name": "FM-5",
        "meta_object_id": "2009-034A",
        "meta_epoch": "2025-12-19T11:28:13.399104",
        "meta_mean_motion": 1.00269894,
        "meta_eccentricity": 0.0001213,
        "meta_inclination": 0.0218,
        "meta_ra_of_asc_node": 291.9988,
        "meta_arg_of_pericenter": 224.3266,
        "meta_mean_anomaly": 17.9165,
        "meta_ephemeris_type": 0,
        "meta_classification_type": "U",
        "meta_norad_cat_id": 35493,
        "meta_element_set_no": 999,
        "meta_rev_at_epoch": 4484,
        "meta_bstar": 0,
        "meta_mean_motion_dot": -1.75e-06,
        "meta_mean_motion_ddot": 0,
        "tle_line1": "1 35493U 09034A   25353.47793286 -.00000175  00000+0  00000+0 0  9996",
        "tle_line2": "2 35493   0.0218 291.9988 0001213 224.3266  17.9165  1.00269894 44843"
      },
      "geometry": {
        "type": "Point",
        "coordinates": [
          88.36360109745047,
          0.02586009980319221
        ]
      }
    },
    {
      "type": "Feature",
      "properties": {
        "norad_id": 36097,
        "name": "INTELSAT 14 (IS-14)",
        "group": "intelsat",
        "lat": 0.027520017092977085,
        "lon": 129.51766991352105,
        "alt_km": 35795.235257626235,
        "timestamp": "2025-12-20T05:41:49.685877+00:00",
        "meta_object_name": "INTELSAT 14 (IS-14)",
        "meta_object_id": "2009-064A",
        "meta_epoch": "2025-12-19T16:28:17.361984",
        "meta_mean_motion": 1.00271255,
        "meta_eccentricity": 0.00024367,
        "meta_inclination": 0.0128,
        "meta_ra_of_asc_node": 351.0941,
        "meta_arg_of_pericenter": 288.6596,
        "meta_mean_anomaly": 10.8613,
        "meta_ephemeris_type": 0,
        "meta_classification_type": "U",
        "meta_norad_cat_id": 36097,
        "meta_element_set_no": 999,
        "meta_rev_at_epoch": 5880,
        "meta_bstar": 0,
        "meta_mean_motion_dot": -2.49e-06,
        "meta_mean_motion_ddot": 0,
        "tle_line1": "1 36097U 09064A   25353.68631206 -.00000249  00000+0  00000+0 0  9998",
        "tle_line2": "2 36097   0.0128 351.0941 0002436 288.6596  10.8613  1.00271255 58803"
      },
      "geometry": {
        "type": "Point",
        "coordinates": [
          129.51766991352105,
          0.027520017092977085
        ]
      }
    },
    {
      "type": "Feature",
      "properties": {
        "norad_id": 36106,
        "name": "INTELSAT 15 (IS-15)",
        "group": "intelsat",
        "lat": -0.04327591208165276,
        "lon": -100.32556345743203,
        "alt_km": 35777.49774758039,
        "timestamp": "2025-12-20T05:41:49.685889+00:00",
        "meta_object_name": "INTELSAT 15 (IS-15)",
        "meta_object_id": "2009-067A",
        "meta_epoch": "2025-12-19T20:17:41.790912",
        "meta_mean_motion": 1.00272116,
        "meta_eccentricity": 0.00021377,
        "meta_inclination": 0.0168,
        "meta_ra_of_asc_node": 5.4687,
        "meta_arg_of_pericenter": 274.0869,
        "meta_mean_anomaly": 198.7176,
        "meta_ephemeris_type": 0,
        "meta_classification_type": "U",
        "meta_norad_cat_id": 36106,
        "meta_element_set_no": 999,
        "meta_rev_at_epoch": 3943,
        "meta_bstar": 0,
        "meta_mean_motion_dot": -1.61e-06,
        "meta_mean_motion_ddot": 0,
        "tle_line1": "1 36106U 09067A   25353.84562258 -.00000161  00000+0  00000+0 0  9993",
        "tle_line2": "2 36106   0.0168   5.4687 0002137 274.0869 198.7176  1.00272116 39430"
      },
      "geometry": {
        "type": "Point",
        "coordinates": [
          -100.32556345743203,
          -0.04327591208165276
        ]
      }
    },
    {
      "type": "Feature",
      "properties": {
        "norad_id": 36131,
        "name": "DIRECTV 12",
        "group": "intelsat",
        "lat": 0.00964337507205026,
        "lon": 71.82399766297844,
        "alt_km": 35785.45741720324,
        "timestamp": "2025-12-20T05:41:49.685902+00:00",
        "meta_object_name": "DIRECTV 12",
        "meta_object_id": "2009-075A",
        "meta_epoch": "2025-12-19T13:24:30.815136",
        "meta_mean_motion": 1.00274473,
        "meta_eccentricity": 4.78e-05,
        "meta_inclination": 0.0149,
        "meta_ra_of_asc_node": 93.7995,
        "meta_arg_of_pericenter": 244.7113,
        "meta_mean_anomaly": 208.3134,
        "meta_ephemeris_type": 0,
        "meta_classification_type": "U",
        "meta_norad_cat_id": 36131,
        "meta_element_set_no": 999,
        "meta_rev_at_epoch": 4475,
        "meta_bstar": 0,
        "meta_mean_motion_dot": -8e-07,
        "meta_mean_motion_ddot": 0,
        "tle_line1": "1 36131U 09075A   25353.55868999 -.00000080  00000+0  00000+0 0  9999",
        "tle_line2": "2 36131   0.0149  93.7995 0000478 244.7113 208.3134  1.00274473 44752"
      },
      "geometry": {
        "type": "Point",
        "coordinates": [
          71.82399766297844,
          0.00964337507205026
        ]
      }
    },
    {
      "type": "Feature",
      "properties": {
        "norad_id": 36397,
        "name": "INTELSAT 16 (IS-16)",
        "group": "intelsat",
        "lat": 0.0335874435859865,
        "lon": 98.32843426235084,
        "alt_km": 35793.66910433132,
        "timestamp": "2025-12-20T05:41:49.685914+00:00",
        "meta_object_name": "INTELSAT 16 (IS-16)",
        "meta_object_id": "2010-006A",
        "meta_epoch": "2025-12-19T18:02:02.008032",
        "meta_mean_motion": 1.00272026,
        "meta_eccentricity": 0.00018134,
        "meta_inclination": 0.0105,
        "meta_ra_of_asc_node": 337.5743,
        "meta_arg_of_pericenter": 292.9337,
        "meta_mean_anomaly": 12.4053,
        "meta_ephemeris_type": 0,
        "meta_classification_type": "U",
        "meta_norad_cat_id": 36397,
        "meta_element_set_no": 999,
        "meta_rev_at_epoch": 5785,
        "meta_bstar": 0,
        "meta_mean_motion_dot": -2.2e-06,
        "meta_mean_motion_ddot": 0,
        "tle_line1": "1 36397U 10006A   25353.75141213 -.00000220  00000+0  00000+0 0  9990",
        "tle_line2": "2 36397   0.0105 337.5743 0001813 292.9337  12.4053  1.00272026 57856"
      },
      "geometry": {
        "type": "Point",
        "coordinates": [
          98.32843426235084,
          0.0335874435859865
        ]
      }
    },
    {
      "type": "Feature",
      "properties": {
        "norad_id": 37185,
        "name": "XM-5",
        "group": "intelsat",
        "lat": 0.053323009753570405,
        "lon": 59.31453860062244,
        "alt_km": 35785.267583088214,
        "timestamp": "2025-12-20T05:41:49.685926+00:00",
        "meta_object_name": "XM-5",
        "meta_object_id": "2010-053A",
        "meta_epoch": "2025-12-19T12:08:14.348832",
        "meta_mean_motion": 1.00273261,
        "meta_eccentricity": 0.0001971,
        "meta_inclination": 0.0647,
        "meta_ra_of_asc_node": 271.3919,
        "meta_arg_of_pericenter": 235.6232,
        "meta_mean_anomaly": 8.2094,
        "meta_ephemeris_type": 0,
        "meta_classification_type": "U",
        "meta_norad_cat_id": 37185,
        "meta_element_set_no": 999,
        "meta_rev_at_epoch": 5568,
        "meta_bstar": 0,
        "meta_mean_motion_dot": 1e-08,
        "meta_mean_motion_ddot": 0,
        "tle_line1": "1 37185U 10053A   25353.50572163  .00000001  00000+0  00000+0 0  9999",
        "tle_line2": "2 37185   0.0647 271.3919 0001971 235.6232   8.2094  1.00273261 55685"
      },
      "geometry": {
        "type": "Point",
        "coordinates": [
          59.31453860062244,
          0.053323009753570405
        ]
      }
    }
  ]
}